start=new Date('2022-02-26T00:00:00.000Z').valueOf();
sats=[{"REV_AT_EPOCH":"919","EPHEMERIS_TYPE":"0","COUNTRY_CODE":"US","MEAN_MOTION":"15.73223743","BSTAR":"-0.00003094300000","OBJECT_TYPE":"PAYLOAD","MEAN_ELEMENT_THEORY":"SGP4","CENTER_NAME":"EARTH","GP_ID":"196988842","OBJECT_ID":"2022-001G","EPOCH":"2022-02-25T22:00:00.999936","SEMIMAJOR_AXIS":"6727.827","RCS_SIZE":"LARGE","MEAN_MOTION_DOT":"-0.00004965","INCLINATION":"53.2154","MEAN_MOTION_DDOT":"0.0000000000000","FILE":"3323029","APOAPSIS":"350.692","ELEMENT_SET_NO":"999","ECCENTRICITY":"0.00014850","OBJECT_NAME":"STARLINK-3232","REF_FRAME":"TEME","RA_OF_ASC_NODE":"311.5287","LAUNCH_DATE":"2022-01-06","NORAD_CAT_ID":"50809","PERIAPSIS":"348.693","TLE_LINE2":"2 50809  53.2154 311.5287 0001485  36.7786 338.5908 15.73223743  9198","TLE_LINE1":"1 50809U 22001G   22056.91667824 -.00004965  00000-0 -30943-4 0  9994","TIME_SYSTEM":"UTC","DECAY_DATE":null,"MEAN_ANOMALY":"338.5908","ARG_OF_PERICENTER":"36.7786","PERIOD":"91.532","CLASSIFICATION_TYPE":"U","SITE":"AFETR"},{"PERIOD":"91.533","SITE":"AFETR","CLASSIFICATION_TYPE":"U","DECAY_DATE":null,"MEAN_ANOMALY":"332.3066","ARG_OF_PERICENTER":"44.4000","TIME_SYSTEM":"UTC","PERIAPSIS":"348.796","TLE_LINE2":"2 50810  53.2159 311.5258 0001438  44.4000 332.3066 15.73198981  3697","TLE_LINE1":"1 50810U 22001H   22056.91667824 -.00039226  00000-0 -27638-3 0  9990","ECCENTRICITY":"0.00014380","OBJECT_NAME":"STARLINK-3348","REF_FRAME":"TEME","RA_OF_ASC_NODE":"311.5258","LAUNCH_DATE":"2022-01-06","NORAD_CAT_ID":"50810","INCLINATION":"53.2159","MEAN_MOTION_DOT":"-0.00039226","SEMIMAJOR_AXIS":"6727.898","RCS_SIZE":"LARGE","MEAN_MOTION_DDOT":"0.0000000000000","FILE":"3323947","APOAPSIS":"350.731","ELEMENT_SET_NO":"999","CENTER_NAME":"EARTH","GP_ID":"197033995","EPOCH":"2022-02-25T22:00:00.999936","OBJECT_ID":"2022-001H","EPHEMERIS_TYPE":"0","COUNTRY_CODE":"US","REV_AT_EPOCH":"369","MEAN_MOTION":"15.73198981","MEAN_ELEMENT_THEORY":"SGP4","OBJECT_TYPE":"PAYLOAD","BSTAR":"-0.00027638000000"},{"REF_FRAME":"TEME","OBJECT_NAME":"STARLINK-3347","ECCENTRICITY":"0.00016110","NORAD_CAT_ID":"50811","LAUNCH_DATE":"2022-01-06","RA_OF_ASC_NODE":"311.5226","MEAN_MOTION_DDOT":"0.0000000000000","RCS_SIZE":"LARGE","SEMIMAJOR_AXIS":"6727.781","MEAN_MOTION_DOT":"-0.00036645","INCLINATION":"53.2148","ELEMENT_SET_NO":"999","APOAPSIS":"350.730","FILE":"3323103","CENTER_NAME":"EARTH","OBJECT_ID":"2022-001J","EPOCH":"2022-02-25T22:00:00.999936","GP_ID":"196991147","REV_AT_EPOCH":"919","COUNTRY_CODE":"US","EPHEMERIS_TYPE":"0","BSTAR":"-0.00025736000000","MEAN_ELEMENT_THEORY":"SGP4","OBJECT_TYPE":"PAYLOAD","MEAN_MOTION":"15.73239881","PERIOD":"91.531","CLASSIFICATION_TYPE":"U","SITE":"AFETR","DECAY_DATE":null,"ARG_OF_PERICENTER":"44.8790","MEAN_ANOMALY":"333.0603","TIME_SYSTEM":"UTC","TLE_LINE2":"2 50811  53.2148 311.5226 0001611  44.8790 333.0603 15.73239881  9195","PERIAPSIS":"348.563","TLE_LINE1":"1 50811U 22001J   22056.91667824 -.00036645  00000-0 -25736-3 0  9990"},{"OBJECT_ID":"2022-001K","EPOCH":"2022-02-25T22:00:00.999936","GP_ID":"196991490","CENTER_NAME":"EARTH","BSTAR":"0.00001958300000","MEAN_ELEMENT_THEORY":"SGP4","OBJECT_TYPE":"PAYLOAD","MEAN_MOTION":"15.73184268","REV_AT_EPOCH":"916","COUNTRY_CODE":"US","EPHEMERIS_TYPE":"0","NORAD_CAT_ID":"50812","RA_OF_ASC_NODE":"311.5202","LAUNCH_DATE":"2022-01-06","REF_FRAME":"TEME","ECCENTRICITY":"0.00020280","OBJECT_NAME":"STARLINK-3338","ELEMENT_SET_NO":"999","APOAPSIS":"351.169","FILE":"3323140","MEAN_MOTION_DDOT":"0.0000000000000","SEMIMAJOR_AXIS":"6727.940","RCS_SIZE":"LARGE","MEAN_MOTION_DOT":"0.00002126","INCLINATION":"53.2151","TIME_SYSTEM":"UTC","TLE_LINE1":"1 50812U 22001K   22056.91667824  .00002126  00000-0  19583-4 0  9990","TLE_LINE2":"2 50812  53.2151 311.5202 0002028  31.8999 347.3367 15.73184268  9164","PERIAPSIS":"348.441","CLASSIFICATION_TYPE":"U","SITE":"AFETR","PERIOD":"91.534","ARG_OF_PERICENTER":"31.8999","MEAN_ANOMALY":"347.3367","DECAY_DATE":null},{"TLE_LINE1":"1 50813U 22001L   22056.91667824 -.00094714  00000-0 -67690-3 0  9998","PERIAPSIS":"348.560","TLE_LINE2":"2 50813  53.2148 311.5199 0001622  37.6748 340.8871 15.73238096  3690","TIME_SYSTEM":"UTC","MEAN_ANOMALY":"340.8871","ARG_OF_PERICENTER":"37.6748","DECAY_DATE":null,"SITE":"AFETR","CLASSIFICATION_TYPE":"U","PERIOD":"91.531","MEAN_MOTION":"15.73238096","OBJECT_TYPE":"PAYLOAD","MEAN_ELEMENT_THEORY":"SGP4","BSTAR":"-0.00067690000000","COUNTRY_CODE":"US","EPHEMERIS_TYPE":"0","REV_AT_EPOCH":"369","GP_ID":"197035247","EPOCH":"2022-02-25T22:00:00.999936","OBJECT_ID":"2022-001L","CENTER_NAME":"EARTH","APOAPSIS":"350.743","FILE":"3323947","ELEMENT_SET_NO":"999","MEAN_MOTION_DOT":"-0.00094714","INCLINATION":"53.2148","RCS_SIZE":"LARGE","SEMIMAJOR_AXIS":"6727.787","MEAN_MOTION_DDOT":"0.0000000000000","RA_OF_ASC_NODE":"311.5199","LAUNCH_DATE":"2022-01-06","NORAD_CAT_ID":"50813","ECCENTRICITY":"0.00016220","OBJECT_NAME":"STARLINK-3349","REF_FRAME":"TEME"},{"ARG_OF_PERICENTER":"38.6668","MEAN_ANOMALY":"342.7741","DECAY_DATE":null,"CLASSIFICATION_TYPE":"U","SITE":"AFETR","PERIOD":"91.553","TLE_LINE1":"1 50814U 22001M   22056.91667824 -.00720658  00000-0 -56675-2 0  9992","TLE_LINE2":"2 50814  53.2175 311.5178 0001438  38.6668 342.7741 15.72860874  3696","PERIAPSIS":"349.760","TIME_SYSTEM":"UTC","ELEMENT_SET_NO":"999","APOAPSIS":"351.695","FILE":"3323947","MEAN_MOTION_DDOT":"0.0000000000000","RCS_SIZE":"LARGE","SEMIMAJOR_AXIS":"6728.862","MEAN_MOTION_DOT":"-0.00720658","INCLINATION":"53.2175","NORAD_CAT_ID":"50814","LAUNCH_DATE":"2022-01-06","RA_OF_ASC_NODE":"311.5178","REF_FRAME":"TEME","ECCENTRICITY":"0.00014380","OBJECT_NAME":"STARLINK-3324","BSTAR":"-0.00566750000000","MEAN_ELEMENT_THEORY":"SGP4","OBJECT_TYPE":"PAYLOAD","MEAN_MOTION":"15.72860874","REV_AT_EPOCH":"369","EPHEMERIS_TYPE":"0","COUNTRY_CODE":"US","OBJECT_ID":"2022-001M","EPOCH":"2022-02-25T22:00:00.999936","GP_ID":"197033496","CENTER_NAME":"EARTH"},{"OBJECT_ID":"2022-001N","EPOCH":"2022-02-25T22:00:00.999936","GP_ID":"197033746","CENTER_NAME":"EARTH","BSTAR":"-0.00575950000000","OBJECT_TYPE":"PAYLOAD","MEAN_ELEMENT_THEORY":"SGP4","MEAN_MOTION":"15.72477316","REV_AT_EPOCH":"369","COUNTRY_CODE":"US","EPHEMERIS_TYPE":"0","NORAD_CAT_ID":"50815","LAUNCH_DATE":"2022-01-06","RA_OF_ASC_NODE":"311.5222","REF_FRAME":"TEME","OBJECT_NAME":"STARLINK-3234","ECCENTRICITY":"0.00017330","ELEMENT_SET_NO":"999","APOAPSIS":"352.988","FILE":"3323947","MEAN_MOTION_DDOT":"0.0000000000000","RCS_SIZE":"LARGE","SEMIMAJOR_AXIS":"6729.956","INCLINATION":"53.2175","MEAN_MOTION_DOT":"-0.00720483","TIME_SYSTEM":"UTC","TLE_LINE1":"1 50815U 22001N   22056.91667824 -.00720483  00000-0 -57595-2 0  9991","TLE_LINE2":"2 50815  53.2175 311.5222 0001733  29.2629 349.7732 15.72477316  3690","PERIAPSIS":"350.655","CLASSIFICATION_TYPE":"U","SITE":"AFETR","PERIOD":"91.575","ARG_OF_PERICENTER":"29.2629","MEAN_ANOMALY":"349.7732","DECAY_DATE":null},{"MEAN_ELEMENT_THEORY":"SGP4","OBJECT_TYPE":"PAYLOAD","BSTAR":"-0.00609840000000","MEAN_MOTION":"15.71123320","COUNTRY_CODE":"US","EPHEMERIS_TYPE":"0","REV_AT_EPOCH":"369","EPOCH":"2022-02-25T22:00:00.999936","OBJECT_ID":"2022-001P","GP_ID":"197034992","CENTER_NAME":"EARTH","ELEMENT_SET_NO":"999","APOAPSIS":"356.650","FILE":"3323947","MEAN_MOTION_DDOT":"0.0000000000000","INCLINATION":"53.2174","MEAN_MOTION_DOT":"-0.00720084","RCS_SIZE":"LARGE","SEMIMAJOR_AXIS":"6733.822","NORAD_CAT_ID":"50816","LAUNCH_DATE":"2022-01-06","RA_OF_ASC_NODE":"311.5084","REF_FRAME":"TEME","ECCENTRICITY":"0.00014290","OBJECT_NAME":"STARLINK-3342","TLE_LINE1":"1 50816U 22001P   22056.91667824 -.00720084  00000-0 -60984-2 0  9995","TLE_LINE2":"2 50816  53.2174 311.5084 0001429  40.2748 339.3794 15.71123320  3698","PERIAPSIS":"354.725","TIME_SYSTEM":"UTC","ARG_OF_PERICENTER":"40.2748","MEAN_ANOMALY":"339.3794","DECAY_DATE":null,"SITE":"AFETR","CLASSIFICATION_TYPE":"U","PERIOD":"91.654"},{"TIME_SYSTEM":"UTC","TLE_LINE2":"2 50817  53.2175 311.5209 0001598  31.9581 347.9181 15.72605131  3699","PERIAPSIS":"350.381","TLE_LINE1":"1 50817U 22001Q   22056.91667824 -.00720438  00000-0 -57279-2 0  9992","PERIOD":"91.568","CLASSIFICATION_TYPE":"U","SITE":"AFETR","DECAY_DATE":null,"ARG_OF_PERICENTER":"31.9581","MEAN_ANOMALY":"347.9181","CENTER_NAME":"EARTH","OBJECT_ID":"2022-001Q","EPOCH":"2022-02-25T22:00:00.999936","GP_ID":"197034748","REV_AT_EPOCH":"369","EPHEMERIS_TYPE":"0","COUNTRY_CODE":"US","BSTAR":"-0.00572790000000","MEAN_ELEMENT_THEORY":"SGP4","OBJECT_TYPE":"PAYLOAD","MEAN_MOTION":"15.72605131","REF_FRAME":"TEME","ECCENTRICITY":"0.00015980","OBJECT_NAME":"STARLINK-3341","NORAD_CAT_ID":"50817","LAUNCH_DATE":"2022-01-06","RA_OF_ASC_NODE":"311.5209","MEAN_MOTION_DDOT":"0.0000000000000","RCS_SIZE":"LARGE","SEMIMAJOR_AXIS":"6729.592","INCLINATION":"53.2175","MEAN_MOTION_DOT":"-0.00720438","ELEMENT_SET_NO":"999","FILE":"3323947","APOAPSIS":"352.532"},{"OBJECT_TYPE":"PAYLOAD","MEAN_ELEMENT_THEORY":"SGP4","BSTAR":"-0.00616160000000","MEAN_MOTION":"15.70867561","COUNTRY_CODE":"US","EPHEMERIS_TYPE":"0","REV_AT_EPOCH":"369","EPOCH":"2022-02-25T22:00:00.999936","OBJECT_ID":"2022-001R","GP_ID":"197033996","CENTER_NAME":"EARTH","ELEMENT_SET_NO":"999","FILE":"3323947","APOAPSIS":"357.618","MEAN_MOTION_DDOT":"0.0000000000000","MEAN_MOTION_DOT":"-0.00719829","INCLINATION":"53.2174","RCS_SIZE":"LARGE","SEMIMAJOR_AXIS":"6734.553","NORAD_CAT_ID":"50818","LAUNCH_DATE":"2022-01-06","RA_OF_ASC_NODE":"311.5093","REF_FRAME":"TEME","ECCENTRICITY":"0.00017810","OBJECT_NAME":"STARLINK-3336","TLE_LINE1":"1 50818U 22001R   22056.91667824 -.00719829  00000-0 -61616-2 0  9995","TLE_LINE2":"2 50818  53.2174 311.5093 0001781  27.0334 350.0120 15.70867561  3699","PERIAPSIS":"355.219","TIME_SYSTEM":"UTC","ARG_OF_PERICENTER":"27.0334","MEAN_ANOMALY":"350.0120","DECAY_DATE":null,"SITE":"AFETR","CLASSIFICATION_TYPE":"U","PERIOD":"91.669"}];
